{"type": "FeatureCollection", "features": [ {"type": "Feature", "properties": {"norad_id": 66795, "name": "STARLINK-36047", "group": "last-30-days", "lat": 36.62231764723612, "lon": -51.89418572989507, "alt_km": 302.645570079103, "timestamp": "2025-12-12T05:47:27.526924+00:00", "meta": {"OBJECT_NAME": "STARLINK-36047", "OBJECT_ID": "2025-278E", "EPOCH": "2025-12-11T20:00:01.999872", "MEAN_MOTION": 15.89318604, "ECCENTRICITY": 0.00018029, "INCLINATION": 42.9976, "RA_OF_ASC_NODE": 257.7196, "ARG_OF_PERICENTER": 256.6557, "MEAN_ANOMALY": 348.3131, "EPHEMERIS_TYPE": 0, "CLASSIFICATION_TYPE": "U", "NORAD_CAT_ID": 66795, "ELEMENT_SET_NO": 999, "REV_AT_EPOCH": 271, "BSTAR": -0.0044695074, "MEAN_MOTION_DOT": -0.0117652, "MEAN_MOTION_DDOT": 0}, "tle": {"line1": "1 66795U 25278E   25345.83335648 -.01176520  00000+0 -44695-2 0  9999", "line2": "2 66795  42.9976 257.7196 0001802 256.6557 348.3131 15.89318604  2714"}}, "geometry": {"type": "Point", "coordinates": [-51.89418572989507, 36.62231764723612]}}, {"type": "Feature", "properties": {"norad_id": 66796, "name": "STARLINK-35964", "group": "last-30-days", "lat": -6.412237123088974, "lon": -112.47199562035641, "alt_km": 269.0286354208474, "timestamp": "2025-12-12T05:47:27.526934+00:00", "meta": {"OBJECT_NAME": "STARLINK-35964", "OBJECT_ID": "2025-278F", "EPOCH": "2025-12-11T20:00:01.999872", "MEAN_MOTION": 16.03474761, "ECCENTRICITY": 0.00016795, "INCLINATION": 42.9954, "RA_OF_ASC_NODE": 257.0351, "ARG_OF_PERICENTER": 256.1584, "MEAN_ANOMALY": 257.6687, "EPHEMERIS_TYPE": 0, "CLASSIFICATION_TYPE": "U", "NORAD_CAT_ID": 66796, "ELEMENT_SET_NO": 999, "REV_AT_EPOCH": 265, "BSTAR": -0.0024820412, "MEAN_MOTION_DOT": -0.01614014, "MEAN_MOTION_DDOT": 0.00081954453}, "tle": {"line1": "1 66796U 25278F   25345.83335648 -.01614014  81954-3 -24820-2 0  9994", "line2": "2 66796  42.9954 257.0351 0001679 256.1584 257.6687 16.03474761  2659"}}, "geometry": {"type": "Point", "coordinates": [-112.47199562035641, -6.412237123088974]}}, {"type": "Feature", "properties": {"norad_id": 66797, "name": "STARLINK-36099", "group": "last-30-days", "lat": 38.716775586453785, "lon": -45.464432072061264, "alt_km": 302.3085525597435, "timestamp": "2025-12-12T05:47:27.526945+00:00", "meta": {"OBJECT_NAME": "STARLINK-36099", "OBJECT_ID": "2025-278G", "EPOCH": "2025-12-11T20:00:01.999872", "MEAN_MOTION": 15.89362263, "ECCENTRICITY": 0.00018324, "INCLINATION": 42.9976, "RA_OF_ASC_NODE": 257.7058, "ARG_OF_PERICENTER": 256.3911, "MEAN_ANOMALY": 354.036, "EPHEMERIS_TYPE": 0, "CLASSIFICATION_TYPE": "U", "NORAD_CAT_ID": 66797, "ELEMENT_SET_NO": 999, "REV_AT_EPOCH": 287, "BSTAR": -0.0045482068, "MEAN_MOTION_DOT": -0.01220212, "MEAN_MOTION_DDOT": 0}, "tle": {"line1": "1 66797U 25278G   25345.83335648 -.01220212  00000+0 -45482-2 0  9994", "line2": "2 66797  42.9976 257.7058 0001832 256.3911 354.0360 15.89362263  2872"}}, "geometry": {"type": "Point", "coordinates": [-45.464432072061264, 38.716775586453785]}}, {"type": "Feature", "properties": {"norad_id": 66798, "name": "STARLINK-36041", "group": "last-30-days", "lat": 39.40198672052154, "lon": -42.98496751525627, "alt_km": 302.1176553820778, "timestamp": "2025-12-12T05:47:27.526956+00:00", "meta": {"OBJECT_NAME": "STARLINK-36041", "OBJECT_ID": "2025-278H", "EPOCH": "2025-12-11T20:00:01.999872", "MEAN_MOTION": 15.89388673, "ECCENTRICITY": 0.00018023, "INCLINATION": 42.9976, "RA_OF_ASC_NODE": 257.7006, "ARG_OF_PERICENTER": 257.1582, "MEAN_ANOMALY": 355.2766, "EPHEMERIS_TYPE": 0, "CLASSIFICATION_TYPE": "U", "NORAD_CAT_ID": 66798, "ELEMENT_SET_NO": 999, "REV_AT_EPOCH": 265, "BSTAR": -0.0045501463, "MEAN_MOTION_DOT": -0.01222127, "MEAN_MOTION_DDOT": 0}, "tle": {"line1": "1 66798U 25278H   25345.83335648 -.01222127  00000+0 -45501-2 0  9994", "line2": "2 66798  42.9976 257.7006 0001802 257.1582 355.2766 15.89388673  2658"}}, "geometry": {"type": "Point", "coordinates": [-42.98496751525627, 39.40198672052154]}}, {"type": "Feature", "properties": {"norad_id": 66799, "name": "STARLINK-36044", "group": "last-30-days", "lat": 40.10719951833056, "lon": -40.143716940614475, "alt_km": 301.9752515821583, "timestamp": "2025-12-12T05:47:27.526967+00:00", "meta": {"OBJECT_NAME": "STARLINK-36044", "OBJECT_ID": "2025-278J", "EPOCH": "2025-12-11T20:00:01.999872", "MEAN_MOTION": 15.89412174, "ECCENTRICITY": 0.00018165, "INCLINATION": 42.9976, "RA_OF_ASC_NODE": 257.695, "ARG_OF_PERICENTER": 257.5343, "MEAN_ANOMALY": 357.1671, "EPHEMERIS_TYPE": 0, "CLASSIFICATION_TYPE": "U", "NORAD_CAT_ID": 66799, "ELEMENT_SET_NO": 999, "REV_AT_EPOCH": 281, "BSTAR": -0.0045687423, "MEAN_MOTION_DOT": -0.01227899, "MEAN_MOTION_DDOT": 0}, "tle": {"line1": "1 66799U 25278J   25345.83335648 -.01227899  00000+0 -45687-2 0  9991", "line2": "2 66799  42.9976 257.6950 0001816 257.5343 357.1671 15.89412174  2818"}}, "geometry": {"type": "Point", "coordinates": [-40.143716940614475, 40.10719951833056]}}, {"type": "Feature", "properties": {"norad_id": 66800, "name": "STARLINK-35996", "group": "last-30-days", "lat": 41.29723926612451, "lon": -34.31853662163899, "alt_km": 301.7115145155367, "timestamp": "2025-12-12T05:47:27.526977+00:00", "meta": {"OBJECT_NAME": "STARLINK-35996", "OBJECT_ID": "2025-278K", "EPOCH": "2025-12-11T20:00:01.999872", "MEAN_MOTION": 15.89464491, "ECCENTRICITY": 0.00018449, "INCLINATION": 42.9975, "RA_OF_ASC_NODE": 257.6834, "ARG_OF_PERICENTER": 258.9841, "MEAN_ANOMALY": 0.2264, "EPHEMERIS_TYPE": 0, "CLASSIFICATION_TYPE": "U", "NORAD_CAT_ID": 66800, "ELEMENT_SET_NO": 999, "REV_AT_EPOCH": 260, "BSTAR": -0.0046136736, "MEAN_MOTION_DOT": -0.01241614, "MEAN_MOTION_DDOT": 0}, "tle": {"line1": "1 66800U 25278K   25345.83335648 -.01241614  00000+0 -46137-2 0  9996", "line2": "2 66800  42.9975 257.6834 0001844 258.9841   0.2264 15.89464491  2600"}}, "geometry": {"type": "Point", "coordinates": [-34.31853662163899, 41.29723926612451]}}, {"type": "Feature", "properties": {"norad_id": 66801, "name": "STARLINK-36080", "group": "last-30-days", "lat": 42.89940635721138, "lon": -19.071328218010795, "alt_km": 301.1901247698743, "timestamp": "2025-12-12T05:47:27.526986+00:00", "meta": {"OBJECT_NAME": "STARLINK-36080", "OBJECT_ID": "2025-278L", "EPOCH": "2025-12-11T20:00:01.999872", "MEAN_MOTION": 15.89588118, "ECCENTRICITY": 0.00018594, "INCLINATION": 42.9973, "RA_OF_ASC_NODE": 257.6543, "ARG_OF_PERICENTER": 257.4929, "MEAN_ANOMALY": 12.9732, "EPHEMERIS_TYPE": 0, "CLASSIFICATION_TYPE": "U", "NORAD_CAT_ID": 66801, "ELEMENT_SET_NO": 999, "REV_AT_EPOCH": 281, "BSTAR": -0.0046779738, "MEAN_MOTION_DOT": -0.01264074, "MEAN_MOTION_DDOT": 0}, "tle": {"line1": "1 66801U 25278L   25345.83335648 -.01264074  00000+0 -46780-2 0  9996", "line2": "2 66801  42.9973 257.6543 0001859 257.4929  12.9732 15.89588118  2819"}}, "geometry": {"type": "Point", "coordinates": [-19.071328218010795, 42.89940635721138]}}, {"type": "Feature", "properties": {"norad_id": 66802, "name": "STARLINK-35604", "group": "last-30-days", "lat": 40.687066273903895, "lon": -37.51038139403614, "alt_km": 301.807663734523, "timestamp": "2025-12-12T05:47:27.526997+00:00", "meta": {"OBJECT_NAME": "STARLINK-35604", "OBJECT_ID": "2025-278M", "EPOCH": "2025-12-11T20:00:01.999872", "MEAN_MOTION": 15.89439584, "ECCENTRICITY": 0.00017898, "INCLINATION": 42.9977, "RA_OF_ASC_NODE": 257.6897, "ARG_OF_PERICENTER": 257.0797, "MEAN_ANOMALY": 359.6735, "EPHEMERIS_TYPE": 0, "CLASSIFICATION_TYPE": "U", "NORAD_CAT_ID": 66802, "ELEMENT_SET_NO": 999, "REV_AT_EPOCH": 281, "BSTAR": -0.0045762488, "MEAN_MOTION_DOT": -0.01231215, "MEAN_MOTION_DDOT": 0}, "tle": {"line1": "1 66802U 25278M   25345.83335648 -.01231215  00000+0 -45762-2 0  9997", "line2": "2 66802  42.9977 257.6897 0001789 257.0797 359.6735 15.89439584  2813"}}, "geometry": {"type": "Point", "coordinates": [-37.51038139403614, 40.687066273903895]}}, {"type": "Feature", "properties": {"norad_id": 66803, "name": "STARLINK-35565", "group": "last-30-days", "lat": 41.74088793622515, "lon": -31.59149371223533, "alt_km": 301.56773623739446, "timestamp": "2025-12-12T05:47:27.527007+00:00", "meta": {"OBJECT_NAME": "STARLINK-35565", "OBJECT_ID": "2025-278N", "EPOCH": "2025-12-11T20:00:01.999872", "MEAN_MOTION": 15.89490265, "ECCENTRICITY": 0.0001825, "INCLINATION": 42.9976, "RA_OF_ASC_NODE": 257.6783, "ARG_OF_PERICENTER": 255.9827, "MEAN_ANOMALY": 5.283, "EPHEMERIS_TYPE": 0, "CLASSIFICATION_TYPE": "U", "NORAD_CAT_ID": 66803, "ELEMENT_SET_NO": 999, "REV_AT_EPOCH": 290, "BSTAR": -0.0046108332, "MEAN_MOTION_DOT": -0.01242379, "MEAN_MOTION_DDOT": 0}, "tle": {"line1": "1 66803U 25278N   25345.83335648 -.01242379  00000+0 -46108-2 0  9996", "line2": "2 66803  42.9976 257.6783 0001825 255.9827   5.2830 15.89490265  2902"}}, "geometry": {"type": "Point", "coordinates": [-31.59149371223533, 41.74088793622515]}}, {"type": "Feature", "properties": {"norad_id": 66804, "name": "STARLINK-36038", "group": "last-30-days", "lat": 42.19773142270367, "lon": -28.178501111034194, "alt_km": 301.4767292465949, "timestamp": "2025-12-12T05:47:27.527016+00:00", "meta": {"OBJECT_NAME": "STARLINK-36038", "OBJECT_ID": "2025-278P", "EPOCH": "2025-12-11T20:00:01.999872", "MEAN_MOTION": 15.89512076, "ECCENTRICITY": 0.00018464, "INCLINATION": 42.9977, "RA_OF_ASC_NODE": 257.672, "ARG_OF_PERICENTER": 258.4447, "MEAN_ANOMALY": 5.3747, "EPHEMERIS_TYPE": 0, "CLASSIFICATION_TYPE": "U", "NORAD_CAT_ID": 66804, "ELEMENT_SET_NO": 999, "REV_AT_EPOCH": 281, "BSTAR": -0.0046435934, "MEAN_MOTION_DOT": -0.01251476, "MEAN_MOTION_DDOT": 0}, "tle": {"line1": "1 66804U 25278P   25345.83335648 -.01251476  00000+0 -46436-2 0  9999", "line2": "2 66804  42.9977 257.6720 0001846 258.4447   5.3747 15.89512076  2817"}}, "geometry": {"type": "Point", "coordinates": [-28.178501111034194, 42.19773142270367]}}]}